ORBCOMM FM20 [+]        
1 25416U 98046D   23275.65974477  .00001738  00000+0  66126-3 0  9995
2 25416  44.9943 247.1368 0002439 302.7307  57.3304 14.34436686314650
ORBCOMM FM16 [-]        
1 25417U 98046E   23275.88531078  .00002951  00000+0  10728-2 0  9991
2 25417  44.9937 243.2467 0003903  11.8585 348.2353 14.35121295314603
ORBCOMM FM15 [-]        
1 25418U 98046F   23275.38486501  .00002433  00000+0  89748-3 0  9991
2 25418  44.9968 249.1799 0003398   6.6153 353.4739 14.34882052314545
ORBCOMM FM14 [-]        
1 25419U 98046G   23275.79155062  .00002753  00000+0  10069-2 0  9996
2 25419  44.9961 246.6176 0003084 345.7946  83.2559 14.34989521314557
ORBCOMM FM13 [+]        
1 25420U 98046H   23275.65843569  .00002095  00000+0  78610-3 0  9995
2 25420  44.9971 251.0423 0004835   2.5280 357.5590 14.34458975313611
ORBCOMM FM21 [-]        
1 25475U 98053A   23275.60667947  .00001755  00000+0  66649-3 0  9993
2 25475  45.0095 335.3826 0002110 259.3198 100.7411 14.34485515307621
ORBCOMM FM22 [-]        
1 25476U 98053B   23275.86048530  .00002094  00000+0  78002-3 0  9996
2 25476  45.0091 332.2200 0003131 292.3284  67.7231 14.34842144307646
ORBCOMM FM23 [-]        
1 25477U 98053C   23275.63615723  .00001923  00000+0  72591-3 0  9993
2 25477  45.0098 337.6828 0002629 280.5718  79.4832 14.34460762307774
